ACS3                    
1 59588U 24077B   24122.20727707  .00000017  00000+0  54488-4 0  9998
2 59588  97.4073 201.2960 0019464 219.8075 140.1649 13.67673890   985
